#cP2017 11 12  0  0  0.00000000      96 ORBIT IGS14 HLM  IGS
## 1975      0.00000000   900.00000000 58069 0.0000000000000
+   32   G01G02G03G04G05G06G07G08G09G10G11G12G13G14G15G16G17
+        G18G19G20G21G22G23G24G25G26G27G28G29G30G31G32  0  0
+          0  0  0  0  0  0  0  0  0  0  0  0  0  0  0  0  0
+          0  0  0  0  0  0  0  0  0  0  0  0  0  0  0  0  0
+          0  0  0  0  0  0  0  0  0  0  0  0  0  0  0  0  0
++         2  2  2  0  2  2  2  2  2  2  2  2  2  2  2  2  2
++         3  2  2  2  2  2  2  2  2  2  2  2  2  2  2  0  0
++         0  0  0  0  0  0  0  0  0  0  0  0  0  0  0  0  0
++         0  0  0  0  0  0  0  0  0  0  0  0  0  0  0  0  0
++         0  0  0  0  0  0  0  0  0  0  0  0  0  0  0  0  0
%c G  cc GPS ccc cccc cccc cccc cccc ccccc ccccc ccccc ccccc
%c cc cc ccc ccc cccc cccc cccc cccc ccccc ccccc ccccc ccccc
%f  1.2500000  1.025000000  0.00000000000  0.000000000000000
%f  0.0000000  0.000000000  0.00000000000  0.000000000000000
%i    0    0    0    0      0      0      0      0         0
%i    0    0    0    0      0      0      0      0         0
/* RAPID ORBIT COMBINATION FROM WEIGHTED AVERAGE OF:        
/* cod emr esa gfz jpl ngs sio usn whu                      
/* REFERENCED TO IGS TIME (IGST) AND TO WEIGHTED MEAN POLE: 
/* PCV:IGS14_1973 OL/AL:FES2004  NONE     Y  ORB:CMB CLK:CMB
*  2017 11 12  7 30  0.00000000
PG01  13732.765997 -21141.639924   7761.230363     -9.851632     5  7  93       
PG02 -15799.909340    484.117650 -20777.738764    282.962338  7  7  6 122       
PG03  17590.862345 -13373.886104 -14721.984465    -43.245741  5  7  6 110       
PG04  21805.117318  11343.199387  10555.275582 999999.999999
PG05 -26348.915157   2314.971943  -3533.828899    -23.000882  5  6  7 103       
PG06 -10450.488775 -12837.479745 -20751.040018    409.413257  6  6  5  92       
PG07   4570.589217 -24995.838331   7096.017394    280.662216  4  7  8  90       
PG08  15474.500237  -4296.882314  21228.805772    -80.324303  5  4  5 114       
PG09  -3464.303492 -21255.700141 -15572.477739    470.479428  8  4  6 111       
PG10  13064.634899  11900.866888  19892.087128    109.043614  5  6  3  98       
PG11  10640.506071 -19016.091378  14699.729987   -725.998887  5  6  6 109       
PG12 -20799.550836  10581.012064 -12662.591264    365.180798  5  6  5  96       
PG13 -18095.140094  -4198.690049  18860.910296    -93.860775  4  6  2 104       
PG14  18346.297958  18038.088315  -6655.065247    -88.377831  3  8  4  71       
PG15 -14431.684930   7482.560854  20854.801147   -357.126107  2  6  4  81       
PG16  26668.281336   -621.830596  -2534.988250     36.448359  3  6  5 103       
PG17 -14498.711043 -22250.865994   2505.701521   -145.119258  6  6  5  77       
PG18   1377.233226  16278.514744  21525.170689    632.593342  6  8  7  91       
PG19 -17817.913214 -18489.112447  -6603.731619   -476.076155  7  7  6 105       
PG20 -19983.832198  13751.137442  10630.082172    492.519033  6  7  7 103       
PG21   -633.535277  24951.910354   9766.884906   -462.863136  7 10  5 109       
PG22  22970.702578 -10882.608701  -7520.054633   -186.325726  5  5  8  94       
PG23   6904.799737 -14884.234613 -20547.919848   -218.629907  6  3  5  90       
PG24 -14464.273617  19433.250613  10478.873591    -42.115954  6  6  5  99       
PG25  -8774.757869  15178.878945 -20038.119420   -488.193163  6  5  4  76       
PG26  22793.898508   4983.142801 -12780.890796   -365.147607  4  5  6 109       
PG27  20178.987246   7985.564568  15407.660398    346.872522  5  5  6 101       
PG28  -8361.133185 -13738.339696  21772.594192    661.864814  7  8  5  71       
PG29  -1751.333498  18775.515286 -18722.598393    539.312004  7  9  9 108       
PG30  -2819.226083 -21332.086440  15482.646423    128.546201  4  5  6  94       
PG31  11675.914411  10441.277686 -21328.220462    162.660902  5  8  5 102       
PG32  16974.572333  20471.076836    163.660666   -522.595151  2  5  4  63       
*  2017 11 12  7 45  0.00000000
PG01  13608.973055 -20061.049815  10386.560071     -9.853846  2  5  7 100       
PG02 -15173.442571  -1956.715722 -21172.041056    282.953703  7  6  5 122       
PG03  19156.688076 -13480.148776 -12495.902829    -43.240830  5  7  6 119       
PG04  22445.121528  12224.975690   8007.571376 999999.999999
PG05 -25872.073021   1933.051256  -6275.923007    -23.000218  6  7  7 106       
PG06  -9634.194246 -15004.665937 -19663.979927    409.414841  6  6  5  85       
PG07   5047.539722 -25502.666868   4316.023074    280.657431  4  7  8  98       
PG08  17005.254599  -2496.369643  20334.224914    -80.325373  5  3  4 112       
PG09  -2070.584562 -19975.723162 -17410.642958    470.483673  8  4  6 109       
PG10  10803.142217  12446.939109  20878.947481    109.050618  5  6  3  82       
PG11  11077.029285 -17155.674038  16478.685654   -726.000390  5  5  5 108       
PG12 -22094.956616  10598.131225 -10159.101442    365.179417  4  6  6  94       
PG13 -19171.678752  -5990.408234  17253.068387    -93.861200  4  6  2 114       
PG14  18538.020913  18685.513842  -3891.871972    -88.378599  4  8  5  66       
PG15 -16100.955322   5764.546341  20209.043460   -357.126269  2  6  4  76       
PG16  26256.635242   -430.275086  -5374.487102     36.447763  4  7  5 103       
PG17 -14107.420058 -22045.729913   5347.764596   -145.117195  5  7  5  82       
PG18   -896.518768  16802.017347  21117.603791    632.593805  5  7  7  97       
PG19 -17978.128348 -19069.998464  -3780.881320   -476.074055  7  7  6  83       
PG20 -21128.203197  13771.391032   8130.440947    492.520398  6  7  7 100       
PG21  -1142.996552  25718.457257   7171.242260   -462.859484  8 10  5 105       
PG22  23772.194285 -10731.014138  -4863.643108   -186.337341  4  3  7 103       
PG23   8605.445017 -13117.852487 -21132.998834   -218.629923  6  4  5 100       
PG24 -14341.357929  18050.868396  12856.130339    -42.115864  6  6  5 108       
PG25 -10941.159552  15496.255977 -18652.168335   -488.198815  7  5  4  96       
PG26  21286.092715   5512.063724 -14965.803112   -365.135308  4  5  6 114       
PG27  21155.553715   9307.305699  13228.773060    346.875806  4  5  6 102       
PG28  -5997.067117 -14040.587167  22370.274272    661.867909  7  8  5  86       
PG29  -3184.953166  17086.979951 -20099.876431    539.307520  7  8  8 107       
PG30  -1990.182182 -22787.154481  13382.743648    128.543834  4  5  6  97       
PG31  10756.037648  12676.967181 -20552.971360    162.658524  6  8  6  86       
PG32  16662.989972  20510.397833   3002.498290   -522.598074  2  5  4  73       
*  2017 11 12  8  0  0.00000000
PG01  13464.933352 -18696.076457  12829.303534     -9.856069  3  5  7  92       
PG02 -14661.462700  -4445.377319 -21183.424324    282.944873  6  6  5 118       
PG03  20459.527521 -13600.366894 -10054.491824    -43.235933  4  6  6 114       
PG04  22905.589826  12881.590171   5325.430175 999999.999999
PG05 -25124.381834   1446.142059  -8911.598487    -22.999136  7  8  7 107       
PG06  -8971.559998 -17074.648069 -18237.966686    409.416389  6  6  5  77       
PG07   5409.255906 -25724.434999   1460.010146    280.653064  5  6  8  92       
PG08  18543.845444   -865.624952  19092.287934    -80.325862  5  4  5 120       
PG09   -477.899932 -18634.518859 -18949.835570    470.487880  8  5  6 119       
PG10   8483.909300  13134.141174  21508.151542    109.057625  4  6  4  80       
PG11  11618.897387 -15126.903801  17963.579779   -726.001933  6  5  4 102       
PG12 -23100.131063  10628.760391  -7480.142254    365.177644  4  6  6  94       
PG13 -20218.509665  -7564.180345  15345.572070    -93.861611  4  6  2 124       
PG14  18560.132024  19078.993566  -1062.019355    -88.379204  4  8  6  82       
PG15 -17775.761475   4190.802273  19212.139238   -357.126420  2  6  4  85       
PG16  25548.085237   -159.729105  -8123.987418     36.447666  5  7  5  87       
PG17 -13496.910858 -21627.885824   8099.392539   -145.114776  4  6  5 105       
PG18  -3084.672560  17415.508642  20364.137950    632.594161  5  7  7  86       
PG19 -17962.386529 -19391.782181   -892.392079   -476.072150  7  6  6  66       
PG20 -21997.294863  13744.238450   5489.871954    492.521202  6  7  7 102       
PG21  -1554.570863  26221.054992   4454.488837   -462.856775  8 10  5 104       
PG22  24288.384635 -10526.652100  -2123.227811   -186.348839  3  3  7 101       
PG23  10419.353664 -11406.647235 -21344.428363   -218.630025  6  4  5  84       
PG24 -14226.873243  16413.700385  15008.011659    -42.116680  6  6  5 106       
PG25 -12920.475962  15887.086929 -16946.823196   -488.204481  7  5  4  86       
PG26  19583.395590   6181.128795 -16894.253709   -365.122935  4  4  6 117       
PG27  22019.445148  10389.028184  10824.001971    346.879121  5  5  6  99       
PG28  -3610.566192 -14487.312152  22604.879003    661.870593  7  8  5  92       
PG29  -4800.751640  15378.410395 -21131.780325    539.303472  6  7  8 111       
PG30  -1313.418093 -24043.953077  11050.994273    128.541405  5  4  6  86       
PG31   9984.714467  14856.816488 -19419.050159    162.656155  7  7  6  97       
PG32  16128.586342  20341.528361   5789.867071   -522.601023  2  5  4  68       
EOF
